LEMUR-2-FINNIAN         
1 66782U 25276DX  26177.15007896  .00004553  00000+0  36599-3 0  9991
2 66782  97.5321 247.8587 0008626  63.2247 296.9859 15.00460441 21348
LEMUR-2-STARLIGHT       
1 66783U 25276DY  26177.18117427  .00007384  00000+0  61030-3 0  9990
2 66783  97.5246 247.5126 0014726 102.4206 257.8666 14.99135300 31545
LEMUR-2-TARTIFLETTE     
1 66784U 25276DZ  26177.17952207  .00006280  00000+0  51985-3 0  9995
2 66784  97.5249 247.5186 0013708 109.3857 250.8849 14.99148252 31548
LEMUR-2-VUKASIN         
1 66785U 25276EA  26177.16540671  .00001540  00000+0  12705-3 0  9994
2 66785  97.5296 247.8241 0005348 101.9871 258.1953 15.00423586 31491
LEMUR-2-HOTSPUR-TOM     
1 66786U 25276EB  26177.17270687  .00006515  00000+0  54028-3 0  9994
2 66786  97.5245 247.4912 0014821 101.5607 258.7281 14.99048440 31473
LEMUR-2-MYRA            
1 66787U 25276EC  26177.13079796  .00008299  00000+0  66315-3 0  9992
2 66787  97.5221 247.7182 0017616 112.6190 247.6900 15.00364362 31556
LEMUR-2 FIKRETDENGIZ    
1 67363U 26004A   26177.00865748  .00004888  00000+0  53284-3 0  9990
2 67363  97.8014 175.4311 0010546 108.3193 251.9172 14.88384035 24590
TWILIGHT-1 OBJECT B     
1 67364U 26004B   26177.23865278  .00001845  00000+0  20812-3 0  9995
2 67364  97.8064 175.6688 0010257  98.9142 261.3237 14.87731738 24639
LEMUR-2-MARIO-SOUSA     
1 67365U 26004C   26177.26001587  .00004804  00000+0  52125-3 0  9994
2 67365  97.7985 175.6742 0010113 108.5579 251.6737 14.88580716 24642
LEMUR-2-SONNENBLUME     
1 67367U 26004E   26177.25968137  .00003132  00000+0  34388-3 0  9992
2 67367  97.7984 175.6549 0009627 109.9063 250.3192 14.88359558 24648
LEMUR-2-WOBLER          
1 67368U 26004F   26177.25190638  .00003862  00000+0  42040-3 0  9990
2 67368  97.8036 175.7786 0009937 101.1346 259.0988 14.88573462 24645
LEMUR-2-GRAM-E-SUE      
1 67370U 26004H   26177.24288879  .00002286  00000+0  25170-3 0  9991
2 67370  97.7972 175.6541 0008713 111.1437 249.0712 14.88508157 24640
LEMUR-2-KATIE           
1 67387U 26004AA  26177.22054199  .00003871  00000+0  40607-3 0  9996
2 67387  97.8033 176.1207 0004737  74.5369 285.6371 14.90100605 24657
LEMUR-2-HCS-BAZUS       
1 67388U 26004AB  26176.95079089  .00006320  00000+0  65833-3 0  9991
2 67388  97.8021 175.8345 0004251  74.0114 286.1572 14.90149435 24617
